[{"OBJECT_NAME":"PREFIRE-1","OBJECT_ID":"2024-108A","EPOCH":"2026-03-09T22:24:03.177504","MEAN_MOTION":15.22571626,"ECCENTRICITY":0.00108716,"INCLINATION":97.5188,"RA_OF_ASC_NODE":223.5154,"ARG_OF_PERICENTER":223.1698,"MEAN_ANOMALY":136.8686,"EPHEMERIS_TYPE":0,"CLASSIFICATION_TYPE":"U","NORAD_CAT_ID":59965,"ELEMENT_SET_NO":999,"REV_AT_EPOCH":9748,"BSTAR":0.00029745769,"MEAN_MOTION_DOT":6.846e-5,"MEAN_MOTION_DDOT":0},{"OBJECT_NAME":"OBJECT V","OBJECT_ID":"2025-313V","EPOCH":"2026-03-09T22:24:14.678208","MEAN_MOTION":15.21825421,"ECCENTRICITY":0.00137871,"INCLINATION":97.401,"RA_OF_ASC_NODE":145.2021,"ARG_OF_PERICENTER":3.3713,"MEAN_ANOMALY":356.7614,"EPHEMERIS_TYPE":0,"CLASSIFICATION_TYPE":"U","NORAD_CAT_ID":67267,"ELEMENT_SET_NO":999,"REV_AT_EPOCH":1085,"BSTAR":0.00061746121,"MEAN_MOTION_DOT":0.00014007,"MEAN_MOTION_DDOT":0}]
